[
    {
        "Altitude(m)": 617719.7901206341,
        "Argument of Periapsis(deg)": 0.0,
        "Eccentricity": 0.0,
        "Inclination(deg)": 60.0,
        "Latitude(deg)": -41.10269202296546,
        "Longitude(deg)": -114.90541571003664,
        "Mean Anomaly(deg)": -130.9091,
        "RAAN(deg)": 135.0,
        "Satellite Name": "Test1 608",
        "Satellite Number": 608,
        "Semi-Major Axis(m)": 6980739.136638005,
        "Time(s)": 0
    },
    {
        "Altitude(m)": 617911.3263013556,
        "Argument of Periapsis(deg)": 0.00010418945913296404,
        "Eccentricity": 0.0,
        "Inclination(deg)": 60.0,
        "Latitude(deg)": -41.565884628952055,
        "Longitude(deg)": -114.40100978769725,
        "Mean Anomaly(deg)": -130.28899385453815,
        "RAAN(deg)": 134.99957995086024,
        "Satellite Name": "Test1 608",
        "Satellite Number": 608,
        "Semi-Major Axis(m)": 6980739.136638005,
        "Time(s)": 10
    }
]